STARLINK-32422          
1 61592U 24187U   25214.38200480  .00002044  00000+0  61079-4 0  9990
2 61592  53.1622 356.7987 0001233  92.1702 267.9444 15.39610742 45608
STARLINK-32397          
1 61593U 24187V   25213.85752262 -.00000438  00000+0 -26627-5 0  9990
2 61593  53.1604   4.1879 0001139 133.4039 226.7057 15.30188476 45451
ONEWEB-0015             
1 61594U 24188A   25214.46525951  .00000185  00000+0  48668-3 0  9997
2 61594  87.8821  84.6252 0001858 100.5017 259.6321 13.11416868 42681
ONEWEB-0687             
1 61595U 24188B   25214.52666581 -.00000128  00000+0 -36303-3 0  9992
2 61595  87.9035  69.3360 0001297 100.9089 259.2188 13.17648179 43934
ONEWEB-0688             
1 61596U 24188C   25214.40347552 -.00000023  00000+0 -92943-4 0  9991
2 61596  87.9028  69.3610 0002162 121.2491 238.8852 13.17647274 43914
ONEWEB-0689             
1 61597U 24188D   25214.19396711 -.00000217  00000+0 -64842-3 0  9990
2 61597  87.8773  84.6488 0001381  80.7840 279.3444 13.11416254 42645
ONEWEB-0690             
1 61598U 24188E   25214.58561199 -.00000530  00000+0 -15325-2 0  9997
2 61598  87.8817  84.5338 0002473  76.0184 284.1218 13.11418253 40989
ONEWEB-0691             
1 61599U 24188F   25214.42794154 -.00000370  00000+0 -10809-2 0  9994
2 61599  87.8728  84.5547 0001836  92.9359 267.1979 13.11416974 42701
ONEWEB-0692             
1 61600U 24188G   25214.60088845 -.00000426  00000+0 -12371-2 0  9998
2 61600  87.8800  84.6026 0001529  47.8463 312.2795 13.11419024 42710
ONEWEB-0693             
1 61601U 24188H   25214.49124491  .00000025  00000+0  30825-4 0  9993
2 61601  87.9033  69.3605 0002620  85.8535 274.2896 13.17648386 43911
ONEWEB-0695             
1 61602U 24188J   25214.19564691 -.00000222  00000+0 -66223-3 0  9992
2 61602  87.8802  84.6693 0001252  67.2873 292.8387 13.11418171 42653
ONEWEB-0697             
1 61603U 24188K   25214.45677460 -.00000009  00000+0 -60438-4 0  9997
2 61603  87.8795  84.6109 0001655  50.8141 309.3134 13.11418702 42676
ONEWEB-0698             
1 61604U 24188L   25214.20583861 -.00000445  00000+0 -12904-2 0  9999
2 61604  87.8799  84.6739 0002402  55.3914 304.7441 13.11417851 40705
ONEWEB-0699             
1 61605U 24188M   25214.49931841 -.00000084  00000+0 -27683-3 0  9996
2 61605  87.8805  99.8159 0001804  57.9520 302.1782 13.10376662 41573
ONEWEB-0700             
1 61606U 24188N   25214.19553919  .00000166  00000+0  43808-3 0  9996
2 61606  87.8766  99.7736 0001244  61.2998 298.8255 13.10375979 41526
ONEWEB-0701             
1 61607U 24188P   25214.21215413  .00000672  00000+0  18874-2 0  9990
2 61607  87.8795  99.8811 0001806  49.3104 310.8180 13.10372776 39862
ONEWEB-0702             
1 61608U 24188Q   25214.17533126  .00000595  00000+0  16418-2 0  9996
2 61608  87.8730  84.6346 0001313  46.5647 313.5590 13.11416499 42671
ONEWEB-0704             
1 61609U 24188R   25214.20052526  .00006139  00000+0  17542-1 0  9999
2 61609  87.8827  99.8235 0001586  45.4215 314.7041 13.10357746 41519
ONEWEB-0705             
1 61610U 24188S   25214.20550739  .00000682  00000+0  19183-2 0  9991
2 61610  87.8793  99.8652 0000585  93.2152 266.9042 13.10374882 33683
ONEWEB-0706             
1 61611U 24188T   25214.19050500 -.00000310  00000+0 -92560-3 0  9992
2 61611  87.8805  99.8955 0001428  70.4289 289.6993 13.10374640 41609
ONEWEB-0707             
1 61612U 24188U   25214.50264830  .00000312  00000+0  85837-3 0  9990
2 61612  87.8799  99.7989 0001341  62.2903 297.8360 13.10378163 41584
ONEWEB-0708             
1 61613U 24188V   25214.21547068  .00000620  00000+0  17395-2 0  9991
2 61613  87.8837  99.8864 0000999  75.0230 285.1008 13.10371978 39790
TIANPING 3A-01          
1 61614U 24189A   25214.78999199  .00003436  00000+0  27301-3 0  9998
2 61614  97.5677 239.2751 0001666  85.6330 274.5085 15.01098146 42725
STARLINK-32302          
1 61621U 24191A   25214.34574879 -.00000054  00000+0  75472-5 0  9993
2 61621  43.0025 312.9759 0001400 238.4325 121.6390 15.27576443 44745
STARLINK-32364          
1 61622U 24191B   25214.74834396  .00000606  00000+0  31553-4 0  9994
2 61622  42.9977 310.8377 0001489 243.9470 116.1229 15.27578160 44751
STARLINK-32331          
1 61623U 24191C   25213.32221733 -.00000654  00000+0 -14275-4 0  9990
2 61623  43.0035 322.5329 0000582 282.6894  77.3892 15.27571562 44448
STARLINK-32398          
1 61624U 24191D   25214.75990887  .00000290  00000+0  20059-4 0  9993
2 61624  42.9978 310.9263 0000990 260.0618 100.0122 15.27576504 44753
STARLINK-32365          
1 61625U 24191E   25214.28293431  .00001822  00000+0  75731-4 0  9992
2 61625  43.0062 313.3676 0001362 271.3549  88.7146 15.27577614 43982
STARLINK-32333          
1 61626U 24191F   25214.57612100  .00007249  00000+0  27302-3 0  9992
2 61626  43.0006 315.5991 0000757 273.6269  86.4496 15.27539196 44680
STARLINK-32399          
1 61627U 24191G   25214.32745210  .00008540  00000+0  32006-3 0  9997
2 61627  43.0034 305.9178 0000594 258.0821 101.9964 15.27520177 44077
STARLINK-32421          
1 61628U 24191H   25214.76638064  .00038689  00000+0  14112-2 0  9998
2 61628  42.9958 310.9792 0001446  96.3310 263.7707 15.27507569 44760
STARLINK-32403          
1 61629U 24191J   25214.29835682  .00000082  00000+0  12493-4 0  9990
2 61629  43.0007 313.4822 0000890 273.2426  86.8324 15.27572620 43988
STARLINK-32390          
1 61630U 24191K   25214.31634408 -.00001420  00000+0 -42105-4 0  9990
2 61630  42.9987 313.6239 0001724 155.8598 204.2334 15.27573272 43982
STARLINK-32348          
1 61631U 24191L   25214.30686670  .00001114  00000+0  50014-4 0  9994
2 61631  42.9996 317.0165 0001863 282.0110  78.0533 15.27569740 43945
STARLINK-32455          
1 61632U 24191M   25214.71460174  .00000223  00000+0  17624-4 0  9999
2 61632  43.0041 314.9198 0000438 217.3350 142.7471 15.27576816 44713
STARLINK-32396          
1 61633U 24191N   25214.31071925  .00000758  00000+0  37085-4 0  9994
2 61633  42.9986 317.0419 0000960 152.7310 207.3592 15.27570407 43944
STARLINK-32355          
1 61634U 24191P   25214.65177435  .00006016  00000+0  22790-3 0  9994
2 61634  43.0018 315.3058 0000616 244.1749 115.9039 15.27585799 44696
STARLINK-32370          
1 61635U 24191Q   25214.34190399 -.00000421  00000+0 -57608-5 0  9999
2 61635  43.0028 312.9453 0001311 235.4054 124.6674 15.27563394 43996
STARLINK-32405          
1 61636U 24191R   25214.65560412 -.00009967  00000+0 -35226-3 0  9995
2 61636  42.9995 315.3365 0000293 247.8153 112.2668 15.27665095 44697
STARLINK-32419          
1 61637U 24191S   25214.63944641 -.00001547  00000+0 -46786-4 0  9994
2 61637  42.9985 311.7464 0000727 273.5935  86.4834 15.27533033 44742
STARLINK-32320          
1 61638U 24191T   25214.33257447  .00012953  00000+0  48041-3 0  9999
2 61638  43.0007 317.2055 0001065 246.9444 113.1295 15.27509502 43946
STARLINK-32341          
1 61639U 24191U   25214.63171544  .00000606  00000+0  31530-4 0  9994
2 61639  43.0005 311.6891 0000567 307.0362  53.0437 15.27570637 44730
STARLINK-32339          
1 61640U 24191V   25214.33803868  .00001658  00000+0  69755-4 0  9992
2 61640  43.0046 312.9189 0001024 222.8491 137.2281 15.27576319 43988
STARLINK-32327          
1 61641U 24191W   25214.67911981  .00011019  00000+0  40998-3 0  9995
2 61641  43.0017 311.1735 0000874 263.0478  97.0274 15.27528552 44734
STARLINK-32264          
1 61642U 24191X   25214.57996990 -.00004493  00000+0 -15376-3 0  9990
2 61642  43.0006 315.6247 0001053 265.6383  94.4348 15.27595596 44682
STARLINK-32337          
1 61643U 24191Y   25214.75219931 -.00000048  00000+0  77851-5 0  9993
2 61643  42.9984 310.8632 0001309 291.9972  68.0741 15.27578531 44821
STARLINK-32238          
1 61661U 24193A   25214.49129874  .00000866  00000+0  41383-4 0  9999
2 61661  53.1610  29.3587 0001204  82.0015 278.1122 15.30192917 42967
STARLINK-32310          
1 61662U 24193B   25214.86314198 -.00001029  00000+0 -22617-4 0  9999
2 61662  53.1616  27.4119 0001053 109.2607 250.8508 15.30189412 44250
STARLINK-32308          
1 61663U 24193C   25214.51123215  .00001980  00000+0  78988-4 0  9996
2 61663  53.1629  28.7703 0000658  87.9275 272.1801 15.30189065 42975
STARLINK-32301          
1 61664U 24193D   25213.51896048 -.00002201  00000+0 -62200-4 0  9996
2 61664  53.1613  33.9573 0001032  73.6388 286.4726 15.30208732 42816
STARLINK-32439          
1 61665U 24193E   25214.50395556  .00004884  00000+0  17690-3 0  9994
2 61665  53.1624  29.4337 0001883  80.7028 279.4185 15.30202526 42963
STARLINK-32428          
1 61666U 24193F   25213.87180972 -.00000215  00000+0  48571-5 0  9997
2 61666  53.1625  31.8868 0001248  89.5418 270.5726 15.30194164 42877
STARLINK-32414          
1 61667U 24193G   25213.51263535 -.00000554  00000+0 -65906-5 0  9994
2 61667  53.1614  33.9151 0001206  86.0759 274.0380 15.30196017 42816
STARLINK-32441          
1 61668U 24193H   25213.89607999 -.00000158  00000+0  67995-5 0  9991
2 61668  53.1612  32.0402 0001323  79.3519 280.7631 15.30193304 42878
STARLINK-32400          
1 61669U 24193J   25214.46544677  .00000115  00000+0  16019-4 0  9991
2 61669  53.1608  27.0660 0000943  91.0139 269.0970 15.30187614 42996
STARLINK-32449          
1 61670U 24193K   25214.86947209  .00000863  00000+0  41276-4 0  9998
2 61670  53.1611  27.4501 0000924  86.7082 273.4025 15.30189440 44190
STARLINK-32453          
1 61671U 24193L   25214.85680944 -.00004226  00000+0 -13063-3 0  9999
2 61671  53.1616  27.3746 0001483 108.3550 251.7612 15.30202108 44196
STARLINK-32443          
1 61672U 24193M   25214.46281178 -.00001555  00000+0 -40361-4 0  9997
2 61672  53.1627  29.1806 0001735  66.8675 293.2509 15.30201127 42961
STARLINK-32417          
1 61673U 24193N   25214.45859151  .00000116  00000+0  16036-4 0  9991
2 61673  53.1617  29.1542 0001091  95.8834 264.2291 15.30188182 42963
